ONEWEB-0298             
1 49087U 21075N   23059.00833062  .00000073  00000+0  15433-3 0  9992
2 49087  87.9079 245.2520 0001906  88.7791 271.3559 13.17635369 75903
ONEWEB-0298             
1 49087U 21075N   23059.53989071 -.00000012  00000+0 -64560-4 0  9993
2 49087  87.9077 245.1460 0001920  88.8169 271.3182 13.17634426 74981
ONEWEB-0298             
1 49087U 21075N   23059.91957554  .00000054  00000+0  10488-3 0  9999
2 49087  87.9077 245.0703 0001929  88.7108 271.4244 13.17634662 75030
ONEWEB-0298             
1 49087U 21075N   23060.07144940  .00000058  00000+0  11519-3 0  9995
2 49087  87.9075 245.0400 0001924  88.5672 271.5680 13.17634850 76047
ONEWEB-0298             
1 49087U 21075N   23060.90675701 -.00000061  00000+0 -19157-3 0  9993
2 49087  87.9078 244.8737 0001911  88.5398 271.5952 13.17634628 75168
ONEWEB-0298             
1 49087U 21075N   23061.74206317  .00000063  00000+0  12854-3 0  9996
2 49087  87.9079 244.7073 0001898  88.1074 272.0274 13.17635248 75276
ONEWEB-0298             
1 49087U 21075N   23062.42549604  .00000094  00000+0  20904-3 0  9990
2 49087  87.9080 244.5712 0001880  87.9374 272.1973 13.17635136 75360
ONEWEB-0298             
1 49087U 21075N   23062.42549604  .00000094  00000+0  20904-3 0  9990
2 49087  87.9080 244.5712 0001880  87.9374 272.1973 13.17635136 76350
ONEWEB-0298             
1 49087U 21075N   23062.88111790  .00000047  00000+0  87251-4 0  9998
2 49087  87.9083 244.4805 0001864  87.8437 272.2908 13.17635267 75427
